FENGYUN 1C DEB          
1 31772U 99025CFX 26060.73637849  .00002043  00000+0  10437-2 0  9991
2 31772  98.4747 338.8877 0134094 248.3488 110.3359 14.12130944719988
FENGYUN 1C DEB          
1 31773U 99025CFY 26060.23969230  .00016918  00000+0  24578-2 0  9996
2 31773  98.9546  64.2905 0037038 297.2989  62.4448 14.75574315663316
FENGYUN 1C DEB          
1 31779U 99025CGE 26061.02822301  .00002383  00000+0  57046-3 0  9995
2 31779  99.3027 353.0686 0212135 310.8182  47.4776 14.41916348981528
FENGYUN 1C DEB          
1 31780U 99025CGF 26061.90819982  .00004577  00000+0  65176-3 0  9995
2 31780  99.2945 230.5784 0149321 166.7962 193.7216 14.70041606996759
FENGYUN 1C DEB          
1 31781U 99025CGG 26047.29406546  .00007456  00000+0  32549-2 0  9996
2 31781  99.4995 227.2988 0195618  91.9454 270.4131 14.14461972692742
FENGYUN 1C DEB          
1 31782U 99025CGH 26061.43324365  .00001630  00000+0  55089-3 0  9990
2 31782  98.9122 230.3302 0080135 121.8835 267.8953 14.36505031978352
FENGYUN 1C DEB          
1 31783U 99025CGJ 26059.30917245  .00000890  00000+0  51185-3 0  9999
2 31783  98.6058  69.4810 0103174 188.8439 188.3061 14.09012316903135
FENGYUN 1C DEB          
1 31788U 99025CGP 26061.95293933  .00003214  00000+0  28556-2 0  9997
2 31788 102.5525 230.0966 0466601 269.4500 248.0250 13.45543354916839
FENGYUN 1C DEB          
1 31804U 99025CGS 26052.24873272  .00003014  00000+0  15070-2 0  9993
2 31804  98.2801 220.6437 0137661 300.9067  57.8632 14.12634844646575
FENGYUN 1C DEB          
1 31805U 99025CGT 26039.17842349  .00015673  00000+0  40909-2 0  9995
2 31805  98.3716  23.9560 0443073 356.1457   3.6339 14.04077468631690
FENGYUN 1C DEB          
1 31807U 99025CGV 26060.18824889  .00003643  00000+0  84309-3 0  9998
2 31807  99.0828 202.5202 0103352 286.9753  72.0133 14.52603601664442
FENGYUN 1C DEB          
1 31808U 99025CGW 26058.36771928  .00024870  00000+0  49834-2 0  9999
2 31808  99.2056 258.6246 0038815 267.5561  92.1193 14.61250397587208
FENGYUN 1C DEB          
1 31810U 99025CGY 26058.26512259  .00002544  00000+0  54891-3 0  9995
2 31810  98.2629  76.7935 0210615 267.3799  90.3270 14.46399264655203
FENGYUN 1C DEB          
1 31813U 99025CHB 26061.04082547  .00002518  00000+0  58783-3 0  9995
2 31813  99.4172 154.9031 0136451  99.0099 262.6563 14.50231021984054
FENGYUN 1C DEB          
1 31814U 99025CHC 26051.93555330  .00000413  00000+0  45922-3 0  9991
2 31814  99.5619 106.0419 0228820  35.7645 325.8584 13.66561912627584
FENGYUN 1C DEB          
1 31815U 99025CHD 26060.78760728 -.00000026  00000+0  94158-5 0  9992
2 31815  98.7777  50.1779 0059201 156.5831 203.8056 14.10300706966535
