[{"OBJECT_NAME":"FENGYUN 1C DEB","OBJECT_ID":"1999-025CFX","EPOCH":"2026-03-01T17:40:23.101536","MEAN_MOTION":14.12130944,"ECCENTRICITY":0.01340944,"INCLINATION":98.4747,"RA_OF_ASC_NODE":338.8877,"ARG_OF_PERICENTER":248.3488,"MEAN_ANOMALY":110.3359,"EPHEMERIS_TYPE":0,"CLASSIFICATION_TYPE":"U","NORAD_CAT_ID":31772,"ELEMENT_SET_NO":999,"REV_AT_EPOCH":71998,"BSTAR":0.0010436953,"MEAN_MOTION_DOT":2.043e-5,"MEAN_MOTION_DDOT":0},{"OBJECT_NAME":"FENGYUN 1C DEB","OBJECT_ID":"1999-025CFY","EPOCH":"2026-03-01T05:45:09.414720","MEAN_MOTION":14.75574315,"ECCENTRICITY":0.0037038,"INCLINATION":98.9546,"RA_OF_ASC_NODE":64.2905,"ARG_OF_PERICENTER":297.2989,"MEAN_ANOMALY":62.4448,"EPHEMERIS_TYPE":0,"CLASSIFICATION_TYPE":"U","NORAD_CAT_ID":31773,"ELEMENT_SET_NO":999,"REV_AT_EPOCH":66331,"BSTAR":0.0024578,"MEAN_MOTION_DOT":0.00016918,"MEAN_MOTION_DDOT":0},{"OBJECT_NAME":"FENGYUN 1C DEB","OBJECT_ID":"1999-025CGE","EPOCH":"2026-03-02T00:40:38.468064","MEAN_MOTION":14.41916348,"ECCENTRICITY":0.02121351,"INCLINATION":99.3027,"RA_OF_ASC_NODE":353.0686,"ARG_OF_PERICENTER":310.8182,"MEAN_ANOMALY":47.4776,"EPHEMERIS_TYPE":0,"CLASSIFICATION_TYPE":"U","NORAD_CAT_ID":31779,"ELEMENT_SET_NO":999,"REV_AT_EPOCH":98152,"BSTAR":0.00057046463,"MEAN_MOTION_DOT":2.383e-5,"MEAN_MOTION_DDOT":0},{"OBJECT_NAME":"FENGYUN 1C DEB","OBJECT_ID":"1999-025CGF","EPOCH":"2026-03-02T21:47:48.464448","MEAN_MOTION":14.70041606,"ECCENTRICITY":0.0149321,"INCLINATION":99.2945,"RA_OF_ASC_NODE":230.5784,"ARG_OF_PERICENTER":166.7962,"MEAN_ANOMALY":193.7216,"EPHEMERIS_TYPE":0,"CLASSIFICATION_TYPE":"U","NORAD_CAT_ID":31780,"ELEMENT_SET_NO":999,"REV_AT_EPOCH":99675,"BSTAR":0.00065176,"MEAN_MOTION_DOT":4.577e-5,"MEAN_MOTION_DDOT":0},{"OBJECT_NAME":"FENGYUN 1C DEB","OBJECT_ID":"1999-025CGG","EPOCH":"2026-02-16T07:03:27.255744","MEAN_MOTION":14.14461972,"ECCENTRICITY":0.0195618,"INCLINATION":99.4995,"RA_OF_ASC_NODE":227.2988,"ARG_OF_PERICENTER":91.9454,"MEAN_ANOMALY":270.4131,"EPHEMERIS_TYPE":0,"CLASSIFICATION_TYPE":"U","NORAD_CAT_ID":31781,"ELEMENT_SET_NO":999,"REV_AT_EPOCH":69274,"BSTAR":0.0032549,"MEAN_MOTION_DOT":7.456e-5,"MEAN_MOTION_DDOT":0},{"OBJECT_NAME":"FENGYUN 1C DEB","OBJECT_ID":"1999-025CGH","EPOCH":"2026-03-02T10:23:52.251360","MEAN_MOTION":14.36505031,"ECCENTRICITY":0.0080135,"INCLINATION":98.9122,"RA_OF_ASC_NODE":230.3302,"ARG_OF_PERICENTER":121.8835,"MEAN_ANOMALY":267.8953,"EPHEMERIS_TYPE":0,"CLASSIFICATION_TYPE":"U","NORAD_CAT_ID":31782,"ELEMENT_SET_NO":999,"REV_AT_EPOCH":97835,"BSTAR":0.00055089263,"MEAN_MOTION_DOT":1.63e-5,"MEAN_MOTION_DDOT":0},{"OBJECT_NAME":"FENGYUN 1C DEB","OBJECT_ID":"1999-025CGJ","EPOCH":"2026-02-28T07:25:12.499680","MEAN_MOTION":14.09012316,"ECCENTRICITY":0.0103174,"INCLINATION":98.6058,"RA_OF_ASC_NODE":69.481,"ARG_OF_PERICENTER":188.8439,"MEAN_ANOMALY":188.3061,"EPHEMERIS_TYPE":0,"CLASSIFICATION_TYPE":"U","NORAD_CAT_ID":31783,"ELEMENT_SET_NO":999,"REV_AT_EPOCH":90313,"BSTAR":0.00051185,"MEAN_MOTION_DOT":8.9e-6,"MEAN_MOTION_DDOT":0},{"OBJECT_NAME":"FENGYUN 1C DEB","OBJECT_ID":"1999-025CGP","EPOCH":"2026-03-02T22:52:13.958112","MEAN_MOTION":13.45543354,"ECCENTRICITY":0.0466601,"INCLINATION":102.5525,"RA_OF_ASC_NODE":230.0966,"ARG_OF_PERICENTER":269.45,"MEAN_ANOMALY":248.025,"EPHEMERIS_TYPE":0,"CLASSIFICATION_TYPE":"U","NORAD_CAT_ID":31788,"ELEMENT_SET_NO":999,"REV_AT_EPOCH":91683,"BSTAR":0.0028556,"MEAN_MOTION_DOT":3.214e-5,"MEAN_MOTION_DDOT":0},{"OBJECT_NAME":"FENGYUN 1C DEB","OBJECT_ID":"1999-025CGS","EPOCH":"2026-02-21T05:58:10.507008","MEAN_MOTION":14.12634844,"ECCENTRICITY":0.0137661,"INCLINATION":98.2801,"RA_OF_ASC_NODE":220.6437,"ARG_OF_PERICENTER":300.9067,"MEAN_ANOMALY":57.8632,"EPHEMERIS_TYPE":0,"CLASSIFICATION_TYPE":"U","NORAD_CAT_ID":31804,"ELEMENT_SET_NO":999,"REV_AT_EPOCH":64657,"BSTAR":0.001507,"MEAN_MOTION_DOT":3.014e-5,"MEAN_MOTION_DDOT":0},{"OBJECT_NAME":"FENGYUN 1C DEB","OBJECT_ID":"1999-025CGT","EPOCH":"2026-02-08T04:16:55.789536","MEAN_MOTION":14.04077468,"ECCENTRICITY":0.04430736,"INCLINATION":98.3716,"RA_OF_ASC_NODE":23.956,"ARG_OF_PERICENTER":356.1457,"MEAN_ANOMALY":3.6339,"EPHEMERIS_TYPE":0,"CLASSIFICATION_TYPE":"U","NORAD_CAT_ID":31805,"ELEMENT_SET_NO":999,"REV_AT_EPOCH":63169,"BSTAR":0.0040908881,"MEAN_MOTION_DOT":0.00015673,"MEAN_MOTION_DDOT":0},{"OBJECT_NAME":"FENGYUN 1C DEB","OBJECT_ID":"1999-025CGV","EPOCH":"2026-03-01T04:31:04.704096","MEAN_MOTION":14.52603601,"ECCENTRICITY":0.0103352,"INCLINATION":99.0828,"RA_OF_ASC_NODE":202.5202,"ARG_OF_PERICENTER":286.9753,"MEAN_ANOMALY":72.0133,"EPHEMERIS_TYPE":0,"CLASSIFICATION_TYPE":"U","NORAD_CAT_ID":31807,"ELEMENT_SET_NO":999,"REV_AT_EPOCH":66444,"BSTAR":0.00084309,"MEAN_MOTION_DOT":3.643e-5,"MEAN_MOTION_DDOT":0},{"OBJECT_NAME":"FENGYUN 1C DEB","OBJECT_ID":"1999-025CGW","EPOCH":"2026-02-27T08:49:30.945792","MEAN_MOTION":14.61250397,"ECCENTRICITY":0.00388155,"INCLINATION":99.2056,"RA_OF_ASC_NODE":258.6246,"ARG_OF_PERICENTER":267.5561,"MEAN_ANOMALY":92.1193,"EPHEMERIS_TYPE":0,"CLASSIFICATION_TYPE":"U","NORAD_CAT_ID":31808,"ELEMENT_SET_NO":999,"REV_AT_EPOCH":58720,"BSTAR":0.0049834204,"MEAN_MOTION_DOT":0.0002487,"MEAN_MOTION_DDOT":0},{"OBJECT_NAME":"FENGYUN 1C DEB","OBJECT_ID":"1999-025CGY","EPOCH":"2026-02-27T06:21:46.591776","MEAN_MOTION":14.46399264,"ECCENTRICITY":0.0210615,"INCLINATION":98.2629,"RA_OF_ASC_NODE":76.7935,"ARG_OF_PERICENTER":267.3799,"MEAN_ANOMALY":90.327,"EPHEMERIS_TYPE":0,"CLASSIFICATION_TYPE":"U","NORAD_CAT_ID":31810,"ELEMENT_SET_NO":999,"REV_AT_EPOCH":65520,"BSTAR":0.00054891,"MEAN_MOTION_DOT":2.544e-5,"MEAN_MOTION_DDOT":0},{"OBJECT_NAME":"FENGYUN 1C DEB","OBJECT_ID":"1999-025CHB","EPOCH":"2026-03-02T00:58:47.320608","MEAN_MOTION":14.50231021,"ECCENTRICITY":0.01364512,"INCLINATION":99.4172,"RA_OF_ASC_NODE":154.9031,"ARG_OF_PERICENTER":99.0099,"MEAN_ANOMALY":262.6563,"EPHEMERIS_TYPE":0,"CLASSIFICATION_TYPE":"U","NORAD_CAT_ID":31813,"ELEMENT_SET_NO":999,"REV_AT_EPOCH":98405,"BSTAR":0.00058783113,"MEAN_MOTION_DOT":2.518e-5,"MEAN_MOTION_DDOT":0},{"OBJECT_NAME":"FENGYUN 1C DEB","OBJECT_ID":"1999-025CHC","EPOCH":"2026-02-20T22:27:11.805120","MEAN_MOTION":13.66561912,"ECCENTRICITY":0.022882,"INCLINATION":99.5619,"RA_OF_ASC_NODE":106.0419,"ARG_OF_PERICENTER":35.7645,"MEAN_ANOMALY":325.8584,"EPHEMERIS_TYPE":0,"CLASSIFICATION_TYPE":"U","NORAD_CAT_ID":31814,"ELEMENT_SET_NO":999,"REV_AT_EPOCH":62758,"BSTAR":0.00045922,"MEAN_MOTION_DOT":4.13e-6,"MEAN_MOTION_DDOT":0},{"OBJECT_NAME":"FENGYUN 1C DEB","OBJECT_ID":"1999-025CHD","EPOCH":"2026-03-01T18:54:09.268992","MEAN_MOTION":14.10300706,"ECCENTRICITY":0.00592014,"INCLINATION":98.7777,"RA_OF_ASC_NODE":50.1779,"ARG_OF_PERICENTER":156.5831,"MEAN_ANOMALY":203.8056,"EPHEMERIS_TYPE":0,"CLASSIFICATION_TYPE":"U","NORAD_CAT_ID":31815,"ELEMENT_SET_NO":999,"REV_AT_EPOCH":96653,"BSTAR":9.415771e-6,"MEAN_MOTION_DOT":-2.6e-7,"MEAN_MOTION_DDOT":0}]
